start=new Date('2022-07-03T00:00:00.000Z').valueOf();
sats=[{"CENTER_NAME":"EARTH","ELEMENT_SET_NO":"999","ECCENTRICITY":"0.00018240","FILE":"3506647","RA_OF_ASC_NODE":"155.8493","REV_AT_EPOCH":"7393","RCS_SIZE":"LARGE","OBJECT_NAME":"STARLINK-2380","NORAD_CAT_ID":"47799","BSTAR":"-0.00005198900000","ARG_OF_PERICENTER":"68.5320","TLE_LINE1":"1 47799U 21018N   22183.28800249 -.00001056  00000-0 -51989-4 0  9997","MEAN_ANOMALY":"291.5863","MEAN_MOTION_DDOT":"0.0000000000000","APOAPSIS":"548.488","MEAN_ELEMENT_THEORY":"SGP4","LAUNCH_DATE":"2021-03-11","MEAN_MOTION":"15.06396337","INCLINATION":"53.0533","DECAY_DATE":null,"SEMIMAJOR_AXIS":"6925.360","REF_FRAME":"TEME","CLASSIFICATION_TYPE":"U","OBJECT_TYPE":"PAYLOAD","PERIAPSIS":"545.962","TLE_LINE2":"2 47799  53.0533 155.8493 0001824  68.5320 291.5863 15.06396337 73930","MEAN_MOTION_DOT":"-0.00001056","EPOCH":"2022-07-02T06:54:43.415136","PERIOD":"95.592","GP_ID":"207267700","COUNTRY_CODE":"US","EPHEMERIS_TYPE":"0","OBJECT_ID":"2021-018N","TIME_SYSTEM":"UTC","SITE":"AFETR"},{"GP_ID":"207271426","COUNTRY_CODE":"US","PERIOD":"95.592","SITE":"AFETR","TIME_SYSTEM":"UTC","OBJECT_ID":"2021-018P","EPHEMERIS_TYPE":"0","REF_FRAME":"TEME","CLASSIFICATION_TYPE":"U","SEMIMAJOR_AXIS":"6925.329","DECAY_DATE":null,"INCLINATION":"53.0542","MEAN_MOTION_DOT":"0.00001322","EPOCH":"2022-07-02T15:24:14.857632","TLE_LINE2":"2 47800  53.0542 154.2689 0001940  59.3563 300.7617 15.06406343 73657","PERIAPSIS":"545.851","OBJECT_TYPE":"PAYLOAD","MEAN_ANOMALY":"300.7617","TLE_LINE1":"1 47800U 21018P   22183.64183863  .00001322  00000-0  10761-3 0  9992","ARG_OF_PERICENTER":"59.3563","MEAN_MOTION":"15.06406343","LAUNCH_DATE":"2021-03-11","MEAN_ELEMENT_THEORY":"SGP4","APOAPSIS":"548.538","MEAN_MOTION_DDOT":"0.0000000000000","OBJECT_NAME":"STARLINK-2381","NORAD_CAT_ID":"47800","RCS_SIZE":"LARGE","FILE":"3506687","REV_AT_EPOCH":"7365","RA_OF_ASC_NODE":"154.2689","ELEMENT_SET_NO":"999","ECCENTRICITY":"0.00019400","CENTER_NAME":"EARTH","BSTAR":"0.00010761000000"},{"MEAN_MOTION_DDOT":"0.0000000000000","APOAPSIS":"548.654","MEAN_ELEMENT_THEORY":"SGP4","LAUNCH_DATE":"2021-03-11","MEAN_MOTION":"15.06393703","ARG_OF_PERICENTER":"60.3499","MEAN_ANOMALY":"299.7694","TLE_LINE1":"1 47801U 21018Q   22183.34468234 -.00000957  00000-0 -45342-4 0  9997","BSTAR":"-0.00004534200000","CENTER_NAME":"EARTH","ELEMENT_SET_NO":"999","ECCENTRICITY":"0.00020520","FILE":"3506647","REV_AT_EPOCH":"7388","RA_OF_ASC_NODE":"160.6704","RCS_SIZE":"LARGE","NORAD_CAT_ID":"47801","OBJECT_NAME":"STARLINK-2382","OBJECT_ID":"2021-018Q","EPHEMERIS_TYPE":"0","TIME_SYSTEM":"UTC","SITE":"AFETR","PERIOD":"95.593","GP_ID":"207266200","COUNTRY_CODE":"US","OBJECT_TYPE":"PAYLOAD","PERIAPSIS":"545.812","EPOCH":"2022-07-02T08:16:20.554176","MEAN_MOTION_DOT":"-0.00000957","TLE_LINE2":"2 47801  53.0545 160.6704 0002052  60.3499 299.7694 15.06393703 73887","INCLINATION":"53.0545","DECAY_DATE":null,"REF_FRAME":"TEME","CLASSIFICATION_TYPE":"U","SEMIMAJOR_AXIS":"6925.368"},{"COUNTRY_CODE":"US","GP_ID":"207267450","PERIOD":"95.593","EPHEMERIS_TYPE":"0","OBJECT_ID":"2021-018R","SITE":"AFETR","TIME_SYSTEM":"UTC","DECAY_DATE":null,"INCLINATION":"53.0539","CLASSIFICATION_TYPE":"U","REF_FRAME":"TEME","SEMIMAJOR_AXIS":"6925.378","OBJECT_TYPE":"PAYLOAD","EPOCH":"2022-07-02T09:22:41.811744","MEAN_MOTION_DOT":"0.00000513","TLE_LINE2":"2 47802  53.0539 180.3825 0001556  65.3147 294.8004 15.06390516 73618","PERIAPSIS":"546.165","MEAN_ANOMALY":"294.8004","TLE_LINE1":"1 47802U 21018R   22183.39076171  .00000513  00000-0  53318-4 0  9996","ARG_OF_PERICENTER":"65.3147","APOAPSIS":"548.320","MEAN_MOTION_DDOT":"0.0000000000000","MEAN_MOTION":"15.06390516","MEAN_ELEMENT_THEORY":"SGP4","LAUNCH_DATE":"2021-03-11","FILE":"3506647","REV_AT_EPOCH":"7361","RA_OF_ASC_NODE":"180.3825","ELEMENT_SET_NO":"999","ECCENTRICITY":"0.00015560","CENTER_NAME":"EARTH","OBJECT_NAME":"STARLINK-2383","NORAD_CAT_ID":"47802","RCS_SIZE":"LARGE","BSTAR":"0.00005331800000"},{"TIME_SYSTEM":"UTC","SITE":"AFETR","OBJECT_ID":"2021-018S","EPHEMERIS_TYPE":"0","PERIOD":"95.592","COUNTRY_CODE":"US","GP_ID":"207273922","PERIAPSIS":"545.652","TLE_LINE2":"2 47803  53.0548 153.0317 0002257  63.8925 296.2296 15.06399540 73691","EPOCH":"2022-07-02T22:02:19.823136","MEAN_MOTION_DOT":"0.00000906","OBJECT_TYPE":"PAYLOAD","SEMIMAJOR_AXIS":"6925.350","REF_FRAME":"TEME","CLASSIFICATION_TYPE":"U","INCLINATION":"53.0548","DECAY_DATE":null,"LAUNCH_DATE":"2021-03-11","MEAN_ELEMENT_THEORY":"SGP4","MEAN_MOTION":"15.06399540","APOAPSIS":"548.778","MEAN_MOTION_DDOT":"0.0000000000000","ARG_OF_PERICENTER":"63.8925","TLE_LINE1":"1 47803U 21018S   22183.91828499  .00000906  00000-0  79730-4 0  9995","MEAN_ANOMALY":"296.2296","BSTAR":"0.00007973000000","RCS_SIZE":"LARGE","NORAD_CAT_ID":"47803","OBJECT_NAME":"STARLINK-2384","ECCENTRICITY":"0.00022570","ELEMENT_SET_NO":"999","CENTER_NAME":"EARTH","RA_OF_ASC_NODE":"153.0317","FILE":"3506793","REV_AT_EPOCH":"7369"},{"BSTAR":"0.00140880000000","NORAD_CAT_ID":"47804","OBJECT_NAME":"STARLINK-2385","RCS_SIZE":"LARGE","FILE":"3506647","RA_OF_ASC_NODE":"155.6455","REV_AT_EPOCH":"7394","ELEMENT_SET_NO":"999","CENTER_NAME":"EARTH","ECCENTRICITY":"0.00026850","MEAN_MOTION":"15.06290471","LAUNCH_DATE":"2021-03-11","MEAN_ELEMENT_THEORY":"SGP4","MEAN_MOTION_DDOT":"0.0000000000000","APOAPSIS":"549.409","TLE_LINE1":"1 47804U 21018T   22183.33593226  .00020703  00000-0  14088-2 0  9999","MEAN_ANOMALY":"295.9233","ARG_OF_PERICENTER":"64.2032","TLE_LINE2":"2 47804  53.0540 155.6455 0002685  64.2032 295.9233 15.06290471 73942","MEAN_MOTION_DOT":"0.00020703","EPOCH":"2022-07-02T08:03:44.547264","PERIAPSIS":"545.690","OBJECT_TYPE":"PAYLOAD","SEMIMAJOR_AXIS":"6925.684","CLASSIFICATION_TYPE":"U","REF_FRAME":"TEME","DECAY_DATE":null,"INCLINATION":"53.0540","SITE":"AFETR","TIME_SYSTEM":"UTC","EPHEMERIS_TYPE":"0","OBJECT_ID":"2021-018T","GP_ID":"207265950","COUNTRY_CODE":"US","PERIOD":"95.599"},{"BSTAR":"0.00007834500000","RCS_SIZE":"LARGE","OBJECT_NAME":"STARLINK-2386","NORAD_CAT_ID":"47805","ELEMENT_SET_NO":"999","ECCENTRICITY":"0.00020360","CENTER_NAME":"EARTH","FILE":"3506647","RA_OF_ASC_NODE":"155.7325","REV_AT_EPOCH":"7395","MEAN_ELEMENT_THEORY":"SGP4","LAUNCH_DATE":"2021-03-11","MEAN_MOTION":"15.06398859","APOAPSIS":"548.627","MEAN_MOTION_DDOT":"0.0000000000000","ARG_OF_PERICENTER":"64.9635","MEAN_ANOMALY":"295.1565","TLE_LINE1":"1 47805U 21018U   22183.36911963  .00000885  00000-0  78345-4 0  9992","PERIAPSIS":"545.807","MEAN_MOTION_DOT":"0.00000885","EPOCH":"2022-07-02T08:51:31.936032","TLE_LINE2":"2 47805  53.0554 155.7325 0002036  64.9635 295.1565 15.06398859 73951","OBJECT_TYPE":"PAYLOAD","REF_FRAME":"TEME","CLASSIFICATION_TYPE":"U","SEMIMAJOR_AXIS":"6925.352","INCLINATION":"53.0554","DECAY_DATE":null,"TIME_SYSTEM":"UTC","SITE":"AFETR","EPHEMERIS_TYPE":"0","OBJECT_ID":"2021-018U","PERIOD":"95.592","GP_ID":"207266700","COUNTRY_CODE":"US"},{"INCLINATION":"53.0539","DECAY_DATE":null,"CLASSIFICATION_TYPE":"U","REF_FRAME":"TEME","SEMIMAJOR_AXIS":"6925.384","OBJECT_TYPE":"PAYLOAD","PERIAPSIS":"545.705","MEAN_MOTION_DOT":"0.00000434","EPOCH":"2022-07-02T13:44:07.108800","TLE_LINE2":"2 47806  53.0539 169.5862 0002229  52.5497 307.5694 15.06388580 73835","PERIOD":"95.593","GP_ID":"207266951","COUNTRY_CODE":"US","EPHEMERIS_TYPE":"0","OBJECT_ID":"2021-018V","TIME_SYSTEM":"UTC","SITE":"AFETR","ELEMENT_SET_NO":"999","ECCENTRICITY":"0.00022290","CENTER_NAME":"EARTH","FILE":"3506647","REV_AT_EPOCH":"7383","RA_OF_ASC_NODE":"169.5862","RCS_SIZE":"LARGE","NORAD_CAT_ID":"47806","OBJECT_NAME":"STARLINK-2387","BSTAR":"0.00004807700000","ARG_OF_PERICENTER":"52.5497","MEAN_ANOMALY":"307.5694","TLE_LINE1":"1 47806U 21018V   22183.57230450  .00000434  00000-0  48077-4 0  9990","APOAPSIS":"548.792","MEAN_MOTION_DDOT":"0.0000000000000","MEAN_ELEMENT_THEORY":"SGP4","LAUNCH_DATE":"2021-03-11","MEAN_MOTION":"15.06388580"},{"DECAY_DATE":null,"INCLINATION":"53.0543","CLASSIFICATION_TYPE":"U","REF_FRAME":"TEME","SEMIMAJOR_AXIS":"6925.356","OBJECT_TYPE":"PAYLOAD","EPOCH":"2022-07-02T07:06:39.734208","MEAN_MOTION_DOT":"0.00001106","TLE_LINE2":"2 47807  53.0543 145.8224 0002198  60.5336 299.5872 15.06397544 74071","PERIAPSIS":"545.699","GP_ID":"207267701","COUNTRY_CODE":"US","PERIOD":"95.592","EPHEMERIS_TYPE":"0","OBJECT_ID":"2021-018W","SITE":"AFETR","TIME_SYSTEM":"UTC","FILE":"3506647","RA_OF_ASC_NODE":"145.8224","REV_AT_EPOCH":"7407","ECCENTRICITY":"0.00021980","ELEMENT_SET_NO":"999","CENTER_NAME":"EARTH","OBJECT_NAME":"STARLINK-2388","NORAD_CAT_ID":"47807","RCS_SIZE":"LARGE","BSTAR":"0.00009313200000","MEAN_ANOMALY":"299.5872","TLE_LINE1":"1 47807U 21018W   22183.29629322  .00001106  00000-0  93132-4 0  9999","ARG_OF_PERICENTER":"60.5336","APOAPSIS":"548.743","MEAN_MOTION_DDOT":"0.0000000000000","MEAN_MOTION":"15.06397544","MEAN_ELEMENT_THEORY":"SGP4","LAUNCH_DATE":"2021-03-11"},{"BSTAR":"-0.00003895600000","OBJECT_NAME":"STARLINK-2389","NORAD_CAT_ID":"47808","RCS_SIZE":"LARGE","REV_AT_EPOCH":"7380","FILE":"3506647","RA_OF_ASC_NODE":"170.3956","ELEMENT_SET_NO":"999","ECCENTRICITY":"0.00017770","CENTER_NAME":"EARTH","MEAN_MOTION":"15.06392864","LAUNCH_DATE":"2021-03-11","MEAN_ELEMENT_THEORY":"SGP4","APOAPSIS":"548.466","MEAN_MOTION_DDOT":"0.0000000000000","MEAN_ANOMALY":"303.0689","TLE_LINE1":"1 47808U 21018X   22183.39166519 -.00000862  00000-0 -38956-4 0  9998","ARG_OF_PERICENTER":"57.0471","MEAN_MOTION_DOT":"-0.00000862","EPOCH":"2022-07-02T09:23:59.872416","TLE_LINE2":"2 47808  53.0537 170.3956 0001777  57.0471 303.0689 15.06392864 73800","PERIAPSIS":"546.005","OBJECT_TYPE":"PAYLOAD","REF_FRAME":"TEME","CLASSIFICATION_TYPE":"U","SEMIMAJOR_AXIS":"6925.370","DECAY_DATE":null,"INCLINATION":"53.0537","SITE":"AFETR","TIME_SYSTEM":"UTC","EPHEMERIS_TYPE":"0","OBJECT_ID":"2021-018X","GP_ID":"207266450","COUNTRY_CODE":"US","PERIOD":"95.593"}];
